{
    "links": {
        "self": "http://www.neowsapp.com/rest/v1/neo/3778656?api_key=iIulBulltgU6a56xZRHN4H3l9WmuAYTsLGpBGhQ2"
    },
    "id": "3778656",
    "neo_reference_id": "3778656",
    "name": "(2017 OM19)",
    "designation": "2017 OM19",
    "nasa_jpl_url": "http://ssd.jpl.nasa.gov/sbdb.cgi?sstr=3778656",
    "absolute_magnitude_h": 23.7,
    "estimated_diameter": {
        "kilometers": {
            "estimated_diameter_min": 0.0483676488,
            "estimated_diameter_max": 0.1081533507
        },
        "meters": {
            "estimated_diameter_min": 48.3676488219,
            "estimated_diameter_max": 108.1533506775
        },
        "miles": {
            "estimated_diameter_min": 0.0300542543,
            "estimated_diameter_max": 0.0672033557
        },
        "feet": {
            "estimated_diameter_min": 158.6865169607,
            "estimated_diameter_max": 354.8338390368
        }
    },
    "is_potentially_hazardous_asteroid": false,
    "close_approach_data": [
        {
            "close_approach_date": "2017-07-04",
            "close_approach_date_full": "2017-Jul-04 11:37",
            "epoch_date_close_approach": 1499168220000,
            "relative_velocity": {
                "kilometers_per_second": "10.3503064216",
                "kilometers_per_hour": "37261.1031179303",
                "miles_per_hour": "23152.6004345828"
            },
            "miss_distance": {
                "astronomical": "0.0513314613",
                "lunar": "19.9679384457",
                "kilometers": "7679077.274467431",
                "miles": "4771557.3582993078"
            },
            "orbiting_body": "Earth"
        }
    ],
    "orbital_data": {
        "orbit_id": "1",
        "orbit_determination_date": "2017-07-31 05:20:34",
        "first_observation_date": "2017-07-26",
        "last_observation_date": "2017-07-30",
        "data_arc_in_days": 4,
        "observations_used": 17,
        "orbit_uncertainty": "8",
        "minimum_orbit_intersection": ".0457525",
        "jupiter_tisserand_invariant": "3.767",
        "epoch_osculation": "2457961.5",
        "eccentricity": ".4895944691269409",
        "semi_major_axis": "1.913142381510753",
        "inclination": "7.935779820115194",
        "ascending_node_longitude": "115.2134541900654",
        "orbital_period": "966.5389628267063",
        "perihelion_distance": ".9764784528707443",
        "perihelion_argument": "128.3358030446534",
        "aphelion_distance": "2.849806310150762",
        "perihelion_time": "2457907.353728707587",
        "mean_anomaly": "20.16748254851634",
        "mean_motion": ".3724629982294314",
        "equinox": "J2000",
        "orbit_class": {
            "orbit_class_type": "APO",
            "orbit_class_description": "Near-Earth asteroid orbits which cross the Earth’s orbit similar to that of 1862 Apollo",
            "orbit_class_range": "a (semi-major axis) > 1.0 AU; q (perihelion) < 1.017 AU"
        }
    },
    "is_sentry_object": false
}